ONEWEB-0341             
1 49207U 21083X   26161.23551036  .00000031  00000+0  45817-4 0  9999
2 49207  87.9161 336.8422 0002131 104.3637 255.7732 13.18685311229073
ONEWEB-0342             
1 49208U 21083Y   26161.30548862  .00000008  00000+0 -12347-4 0  9998
2 49208  87.9191 275.8083 0001860 102.3981 257.7361 13.20770635235872
ONEWEB-0343             
1 49209U 21083Z   26161.24394546  .00000048  00000+0  89717-4 0  9998
2 49209  87.9164 336.8391 0001512 101.1545 258.9757 13.18685942229126
ONEWEB-0344             
1 49210U 21083AA  26161.49239613  .00000132  00000+0  32657-3 0  9994
2 49210  87.8937 321.5747 0002049 104.2317 255.9040 13.13472587230014
ONEWEB-0345             
1 49211U 21083AB  26161.48392792 -.00000060  00000+0 -19868-3 0  9993
2 49211  87.8957 321.5562 0001992 103.7885 256.3465 13.13471133230025
ONEWEB-0346             
1 49212U 21083AC  26161.24056875  .00000019  00000+0  15510-4 0  9990
2 49212  87.9158 336.8404 0002421  83.8068 276.3340 13.18685072229063
ONEWEB-0348             
1 49213U 21083AD  26161.29538488 -.00000003  00000+0 -39232-4 0  9993
2 49213  87.9194 275.8141 0002478 100.2323 259.9089 13.20770169235906
ONEWEB-0350             
1 49214U 21083AE  26161.49790521  .00000222  00000+0  57741-3 0  9999
2 49214  87.8954 321.5570 0002033 100.4125 259.7233 13.12943659230051
ONEWEB-0351             
1 49215U 21083AF  26161.28850293  .00000043  00000+0  74729-4 0  9997
2 49215  87.9193 275.8141 0001734 127.4384 232.6907 13.20769853235869
ONEWEB-0352             
1 49216U 21083AG  26161.16906617 -.00000324  00000+0 -92324-3 0  9991
2 49216  87.8948 321.6306 0001521 105.5778 254.5519 13.13470549230105
ONEWEB-0354             
1 49217U 21083AH  26161.31559623  .00000044  00000+0  75608-4 0  9994
2 49217  87.9190 275.8076 0002358 103.6153 256.5243 13.20772785235909
ONEWEB-0355             
1 49218U 21083AJ  26161.19798816  .00000301  00000+0  78903-3 0  9996
2 49218  87.8943 321.6263 0001794 102.8555 257.2775 13.13469704229988
ONEWEB-0357             
1 49219U 21083AK  26161.31222775 -.00000005  00000+0 -44295-4 0  9998
2 49219  87.9191 275.8026 0001847 106.2539 253.8797 13.20772191235901
ONEWEB-0332             
1 49279U 21090A   26161.29190417 -.00000152  00000+0 -44581-3 0  9996
2 49279  87.8960 291.0835 0001652  98.2561 261.8757 13.14501771226673
ONEWEB-0347             
1 49280U 21090B   26161.30212241 -.00000006  00000+0 -46359-4 0  9994
2 49280  87.9191 275.8127 0001729  97.6365 262.4965 13.20770878230133
ONEWEB-0349             
1 49281U 21090C   26161.33411654  .00000125  00000+0  27536-3 0  9992
2 49281  87.9190 275.8068 0001973 101.7138 258.4216 13.20771947228929
ONEWEB-0353             
1 49282U 21090D   26161.28399257  .00000183  00000+0  45805-3 0  9994
2 49282  87.8963 291.0806 0001641  96.9548 263.1769 13.14502868226672
ONEWEB-0356             
1 49283U 21090E   26161.33243105  .00000061  00000+0  11799-3 0  9991
2 49283  87.9189 275.8004 0002273  80.2728 279.8662 13.20772996228926
ONEWEB-0358             
1 49284U 21090F   26161.28682152 -.00031730  00000+0 -78766-1 0  9999
2 49284  87.9185 275.8140 0002219  92.6572 267.4815 13.20407961229648
ONEWEB-0359             
1 49285U 21090G   26161.28360813  .00000079  00000+0  16145-3 0  9992
2 49285  87.9190 275.8101 0002259 102.0011 258.1376 13.20772922229629
ONEWEB-0360             
1 49286U 21090H   26161.27350897  .00001413  00000+0  34422-2 0  9993
2 49286  87.9189 275.8184 0002100 102.7986 257.3382 13.20767638228931
ONEWEB-0361             
1 49287U 21090J   26161.33073663  .00000074  00000+0  14960-3 0  9992
2 49287  87.9191 275.8053 0002091  99.5365 260.6005 13.20770835229396
ONEWEB-0362             
1 49288U 21090K   26161.12625829  .00000021  00000+0  19078-4 0  9995
2 49288  87.9163 306.3851 0001803 106.1810 253.9521 13.19724096225987
ONEWEB-0363             
1 49289U 21090L   26161.34588348  .00000066  00000+0  12944-3 0  9997
2 49289  87.9192 275.8027 0002118  92.3488 267.7887 13.20770286229405
ONEWEB-0364             
1 49290U 21090M   26161.30885398 -.00000007  00000+0 -48705-4 0  9992
2 49290  87.9186 275.8181 0001965 101.2089 258.9265 13.20770923230533
ONEWEB-0365             
1 49291U 21090N   26161.13574101 -.00000017  00000+0 -73572-4 0  9992
2 49291  87.9172 306.3713 0001774  98.9249 261.2085 13.19724463225490
ONEWEB-0366             
1 49292U 21090P   26161.28081808  .00000219  00000+0  55645-3 0  9998
2 49292  87.8958 291.0833 0001933 100.3242 259.8106 13.14502276226650
ONEWEB-0367             
1 49293U 21090Q   26161.34505844 -.00000457  00000+0 -11558-2 0  9997
2 49293  87.9194 275.8045 0002017 104.7149 255.4208 13.20785625228922
ONEWEB-0368             
1 49294U 21090R   26161.31894294 -.00000008  00000+0 -52003-4 0  9999
2 49294  87.9179 275.8203 0001586  79.6946 280.4366 13.20769674230075
ONEWEB-0369             
1 49295U 21090S   26161.13100637 -.00000013  00000+0 -65461-4 0  9999
2 49295  87.9162 306.3804 0001785  96.2186 263.9150 13.19724343225485
