OBJECT_NAME,OBJECT_ID,EPOCH,MEAN_MOTION,ECCENTRICITY,INCLINATION,RA_OF_ASC_NODE,ARG_OF_PERICENTER,MEAN_ANOMALY,EPHEMERIS_TYPE,CLASSIFICATION_TYPE,NORAD_CAT_ID,ELEMENT_SET_NO,REV_AT_EPOCH,BSTAR,MEAN_MOTION_DOT,MEAN_MOTION_DDOT
ONEWEB-0341,2021-083X,2026-06-10T05:39:08.095104,13.18685311,.0002131,87.9161,336.8422,104.3637,255.7732,0,U,49207,999,22907,.45817E-4,.31E-6,0
ONEWEB-0342,2021-083Y,2026-06-10T07:19:54.216768,13.20770635,.000186,87.9191,275.8083,102.3981,257.7361,0,U,49208,999,23587,-.12347E-4,.8E-7,0
ONEWEB-0343,2021-083Z,2026-06-10T05:51:16.887744,13.18685942,.0001512,87.9164,336.8391,101.1545,258.9757,0,U,49209,999,22912,.89717E-4,.48E-6,0
ONEWEB-0344,2021-083AA,2026-06-10T11:49:03.025632,13.13472587,.0002049,87.8937,321.5747,104.2317,255.9040,0,U,49210,999,23001,.32657E-3,.132E-5,0
ONEWEB-0345,2021-083AB,2026-06-10T11:36:51.372288,13.13471133,.0001992,87.8957,321.5562,103.7885,256.3465,0,U,49211,999,23002,-.19868E-3,-.6E-6,0
ONEWEB-0346,2021-083AC,2026-06-10T05:46:25.140000,13.18685072,.0002421,87.9158,336.8404,83.8068,276.3340,0,U,49212,999,22906,.1551E-4,.19E-6,0
ONEWEB-0348,2021-083AD,2026-06-10T07:05:21.253632,13.20770169,.0002478,87.9194,275.8141,100.2323,259.9089,0,U,49213,999,23590,-.39232E-4,-.3E-7,0
ONEWEB-0350,2021-083AE,2026-06-10T11:56:59.010144,13.12943659,.0002033,87.8954,321.5570,100.4125,259.7233,0,U,49214,999,23005,.57741E-3,.222E-5,0
ONEWEB-0351,2021-083AF,2026-06-10T06:55:26.653152,13.20769853,.0001734,87.9193,275.8141,127.4384,232.6907,0,U,49215,999,23586,.74729E-4,.43E-6,0
ONEWEB-0352,2021-083AG,2026-06-10T04:03:27.317088,13.13470549,.0001521,87.8948,321.6306,105.5778,254.5519,0,U,49216,999,23010,-.92324E-3,-.324E-5,0
ONEWEB-0354,2021-083AH,2026-06-10T07:34:27.514272,13.20772785,.0002358,87.9190,275.8076,103.6153,256.5243,0,U,49217,999,23590,.75608E-4,.44E-6,0
ONEWEB-0355,2021-083AJ,2026-06-10T04:45:06.177024,13.13469704,.0001794,87.8943,321.6263,102.8555,257.2775,0,U,49218,999,22998,.78903E-3,.301E-5,0
ONEWEB-0357,2021-083AK,2026-06-10T07:29:36.477600,13.20772191,.0001847,87.9191,275.8026,106.2539,253.8797,0,U,49219,999,23590,-.44295E-4,-.5E-7,0
ONEWEB-0332,2021-090A,2026-06-10T07:00:20.520288,13.14501771,.0001652,87.8960,291.0835,98.2561,261.8757,0,U,49279,999,22667,-.44581E-3,-.152E-5,0
ONEWEB-0347,2021-090B,2026-06-10T07:15:03.376224,13.20770878,.0001729,87.9191,275.8127,97.6365,262.4965,0,U,49280,999,23013,-.46359E-4,-.6E-7,0
ONEWEB-0349,2021-090C,2026-06-10T08:01:07.669056,13.20771947,.0001973,87.9190,275.8068,101.7138,258.4216,0,U,49281,999,22892,.27536E-3,.125E-5,0
ONEWEB-0353,2021-090D,2026-06-10T06:48:56.958048,13.14502868,.0001641,87.8963,291.0806,96.9548,263.1769,0,U,49282,999,22667,.45805E-3,.183E-5,0
ONEWEB-0356,2021-090E,2026-06-10T07:58:42.042720,13.20772996,.0002273,87.9189,275.8004,80.2728,279.8662,0,U,49283,999,22892,.11799E-3,.61E-6,0
ONEWEB-0358,2021-090F,2026-06-10T06:53:01.379328,13.20407961,.0002219,87.9185,275.8140,92.6572,267.4815,0,U,49284,999,22964,-.78766E-1,-.3173E-3,0
ONEWEB-0359,2021-090G,2026-06-10T06:48:23.742432,13.20772922,.0002259,87.9190,275.8101,102.0011,258.1376,0,U,49285,999,22962,.16145E-3,.79E-6,0
ONEWEB-0360,2021-090H,2026-06-10T06:33:51.175008,13.20767638,.00021,87.9189,275.8184,102.7986,257.3382,0,U,49286,999,22893,.34422E-2,.1413E-4,0
ONEWEB-0361,2021-090J,2026-06-10T07:56:15.644832,13.20770835,.0002091,87.9191,275.8053,99.5365,260.6005,0,U,49287,999,22939,.1496E-3,.74E-6,0
ONEWEB-0362,2021-090K,2026-06-10T03:01:48.716256,13.19724096,.00018038,87.9163,306.3851,106.1810,253.9521,0,U,49288,999,22598,.1907783E-4,.21E-6,0
ONEWEB-0363,2021-090L,2026-06-10T08:18:04.332672,13.20770286,.0002118,87.9192,275.8027,92.3488,267.7887,0,U,49289,999,22940,.12944E-3,.66E-6,0
ONEWEB-0364,2021-090M,2026-06-10T07:24:44.983872,13.20770923,.0001965,87.9186,275.8181,101.2089,258.9265,0,U,49290,999,23053,-.48705E-4,-.7E-7,0
ONEWEB-0365,2021-090N,2026-06-10T03:15:28.023264,13.19724463,.00017743,87.9172,306.3713,98.9249,261.2085,0,U,49291,999,22549,-.7357248E-4,-.17E-6,0
ONEWEB-0366,2021-090P,2026-06-10T06:44:22.682112,13.14502276,.0001933,87.8958,291.0833,100.3242,259.8106,0,U,49292,999,22665,.55645E-3,.219E-5,0
ONEWEB-0367,2021-090Q,2026-06-10T08:16:53.049216,13.20785625,.0002017,87.9194,275.8045,104.7149,255.4208,0,U,49293,999,22892,-.11558E-2,-.457E-5,0
ONEWEB-0368,2021-090R,2026-06-10T07:39:16.670016,13.20769674,.0001586,87.9179,275.8203,79.6946,280.4366,0,U,49294,999,23007,-.52003E-4,-.8E-7,0
ONEWEB-0369,2021-090S,2026-06-10T03:08:38.950368,13.19724343,.00017857,87.9162,306.3804,96.2186,263.9150,0,U,49295,999,22548,-.65460843E-4,-.13E-6,0
